STARLINK-4164           
1 53282U 22086AS  26068.81360383 -.00001592  00000+0 -81994-4 0  9995
2 53282  53.2165 183.5658 0001281  87.2210 272.8929 15.08824477201213
LEMUR-2-SIERRINI        
1 60579U 24149DR  26068.80891719  .00014386  00000+0  92040-3 0  9991
2 60579  97.6873 151.1225 0006580 147.8458 212.3173 15.08682764 85461
